#dP2023  1  3  0  0  0.00000000      96 __u+U IGS14 FIT  IAC
## 2243 172800.00000000   900.00000000 59947 0.0000000000000
+  117   C06C07C08C09C10C11C12C13C14C16C19C20C21C22C23C24C25
+        C26C27C28C29C30C32C33C34C36C37C39C40C41C42C43C44C45
+        C46E01E02E03E04E05E07E08E09E10E11E12E13E14E15E18E19
+        E21E24E25E26E27E30E31E33E34E36G01G02G03G04G05G06G07
+        G08G09G10G11G12G13G14G15G16G17G18G19G20G21G22G23G24
+        G25G26G27G29G30G31G32J02J03J04R01R02R03R04R05R07R08
+        R09R11R12R13R14R15R16R17R18R19R20R21R22R24R25  0  0
++         7  7  7  7  7  7  7  7  7  7  6  6  6  6  6  6  6
++         6  6  6  6  6  6  6  6  5  6  6  6  6  6  6  6  6
++         6  4  5  4  4  4  4  4  4  4  4  4  4  4  4  5  4
++         4  4  4  4  4  4  4  4  4  4  3  4  3  4  4  3  3
++         4  4  3  4  3  3  3  3  4  3  4  3  4  3  4  3  3
++         3  4  4  3  3  4  4  9  0 10  8  7  7  7  6  6  7
++         6  7  7  8  7  7  6  7  7  8  8  7  7  7  8  0  0
%c M  cc GPS ccc cccc cccc cccc cccc ccccc ccccc ccccc ccccc
%c cc cc ccc ccc cccc cccc cccc cccc ccccc ccccc ccccc ccccc
%f  1.2500000  1.025000000  0.00000000000  0.000000000000000
%f  0.0000000  0.000000000  0.00000000000  0.000000000000000
%i    0    0    0    0      0      0      0      0         0
%i    0    0    0    0      0      0      0      0         0
/* INFORMATION & ANALYSIS CENTER (IAC)            FINAL DATA
/* S/V CLOCKS ARE ALIGNED TO GNSS TIME                      
/* G:C1WC2W R:C1PC2P E:C1XC5X C:C2IC6I J:C1CC2S             
/* PCV:IGS20_2239 OL/AL:FES2004  NONE     YN ORB:CoN CLK:CoN
*  2023 01 03 23 15  0.00000000
PC06  -4727.250034  39710.873074  13760.128707    208.430124
PC07  -6252.473715  26407.605899 -32203.062978     66.883852
PC08 -18829.081593  31131.404739  21179.992259    526.595036
PC09   -910.286476  41996.962011   6485.370758    116.501685
PC10   -201.005173  27422.814634 -31662.507073     39.131959
PC11  -5254.069419 -27256.475045   3058.453948   -198.157005
PC12   6873.460948 -20022.367535  18231.659138    379.158797
PC13 -12678.453634  31503.781865  24964.046289    174.609944
PC14  -7508.288851 -16603.429779 -21133.621145    331.505960
PC16  -6544.981987  38291.775181  16935.554357     89.147627
PC19  17362.808457  15077.748598  15823.272156   -898.960802
PC20  -1674.118824  15719.965873  23005.654415    781.279374
PC21  21150.991688  -6886.176661 -16828.475619   -919.731053
PC22  27289.882920   5715.108819   -894.830941   -704.588901
PC23 -19612.868666    -30.537413  19843.488514   -870.878447
PC24  11733.160758 -23193.084057  10180.848227   -587.586709
PC25  -7059.312767 -15743.224068  21924.448552     49.852859
PC26  21051.657852 -17490.487917  -5567.767651    -59.268709
PC27 -12235.991498  12309.962406 -21869.567343     76.214109
PC28 -17143.396898  -7416.809918 -20725.235760     54.829209
PC29  12848.565972  23861.380321   6662.147192     62.641454
PC30    137.795392  25497.854280 -11369.425516      1.264438
PC32 -21173.775606   7019.214791  16783.646033   -661.184674
PC33 -17387.986498 -15006.540411 -15853.738760   -884.823027
PC34   -966.027732 -25899.211096  10309.173478     75.768880
PC36   6116.417624  16344.210869 -21758.409343   -719.963515
PC37 -21769.027726  16040.565855   6840.082047   -858.849529
PC39  -7854.596010  35455.391047  21621.706205     -1.289520
PC40 -11199.412642  20200.544425 -35298.606121    -11.685714
PC41 -27261.058645  -5952.114327    366.599011   -453.628155
PC42   3060.656105 -15465.660108 -22984.511347   -917.598139
PC43 -12416.977992 -24268.921831  -5912.767838      0.252738
PC44  12021.549698 -12539.426748  21825.395252    166.026519
PC45  19743.632467   -438.453184 -19735.166691    -43.052386
PC46 -10217.380568  23104.126742 -11814.619406    -24.023956
PE01    877.485859  16955.618773 -24248.022618   -589.548053
PE02  -1232.065693 -16879.578680  24280.787002     12.559825
PE03 -10994.025853 -23901.913261 -13578.035279   -636.393976
PE04  23029.693705  18111.232759  -4235.870062    -28.448367
PE05   7801.784894 -15754.471668 -23815.203550   -108.646398
PE07 -21784.997166  -1503.927682  19984.779842    -12.391418
PE08 -23027.550527 -18129.334667   4168.872665    -13.615361
PE09  21788.435881   1721.859641 -19960.091109   -787.433622
PE10  15731.930126   3131.197054  24877.434602   -502.530066
PE11  17166.181441  -9121.904386  22316.086153    302.756651
PE12  12086.629448  13833.290179  23219.648514   -371.135665
PE13 -17083.621146   8177.595892 -22738.121940    430.114523
PE14 -20460.503567 -23043.753897  -1896.281173    103.342124
PE15 -11884.001496 -14107.484591 -23136.006549    696.538057
PE18  10380.920454  22562.636691  -6703.291028   -550.911068
PE19   8623.658176  23580.185790  15685.166715  -3576.477028
PE21 -18412.984034  16653.752909 -16113.713649   -504.182413
PE24  28856.492064  -6101.437725  -2711.467057  -1038.323967
PE25  18712.513910 -16567.081884  15872.723667   -596.414130
PE26 -11907.231962  25829.485193  -8183.791109  -1861.924290
PE27 -28735.730977   6821.438365   1828.672819   -479.105770
PE30 -21473.179105  -7508.199964  18916.001761  -1131.513992
PE31  22047.616696   6917.253778 -18503.103533   -512.383688
PE33   -283.636363  27905.187036   9891.094004   -454.850141
PE34    129.641077 -27853.520214 -10027.628873    -23.008343
PE36  12223.465252 -25396.921037   9040.626920   -485.157684
PG01  13753.073020 -20087.621521   9875.659075    228.951585
PG02 -10565.575923  23244.578165  -7070.580512   -629.397260
PG03  20106.649467 -12537.975644 -12010.438753   -373.956021
PG04   9362.819785 -12264.476371 -21605.856373    -55.812493
PG05 -26041.688423   5140.421504  -2231.569863   -110.618074
PG06  -8155.926976 -16028.303467 -19443.463378    552.517552
PG07   5373.844154 -25487.475356   4000.673737    264.493237
PG08  17662.164540  -1514.168002  19845.188686   -101.863740
PG09  -1736.933629 -19938.118011 -17517.131668   -242.549917
PG10  10263.774875  12499.567830  21295.259571    -18.921879
PG11 -14947.170030  -3103.624751 -21721.693418    -70.742313
PG12 -21607.814811  10807.349275 -11189.895554   -323.833464
PG13 -19030.172564  -7337.746864  16938.817181    453.318895
PG14  -7239.586061 -14164.731779  21289.610297    -56.315561
PG15 -17470.393655   3955.510299  19244.061454      1.558480
PG16  26306.266141    597.337492  -5437.921823   -524.810798
PG17 -11565.582931 -22773.269720   7548.649885    690.864030
PG18  -4152.184783  25358.581083   6422.603222    -84.906660
PG19 -17805.752826 -19444.077928  -4464.043729    259.352404
PG20 -22708.403307  -1536.798656 -13481.251331    459.324248
PG21  15621.019856 -12438.930252  17702.659846    153.169184
PG22  18932.167584  17443.358368  -6473.372532    398.452016
PG23  -2627.145167  15596.275509  21313.720214      1.502597
PG24 -14308.563479  17311.295960  13498.773838    -14.176912
PG25 -12652.131270  15565.664125 -17570.034602    408.109886
PG26  20411.427455   6548.336581 -15997.849391    239.704073
PG27  20997.053448   9746.749179  13158.077062    136.029431
PG29  -1938.123214  18444.195039 -19025.380680   -578.276097
PG30  -3649.687616 -22041.078874  14256.929889   -534.103628
PG31  10003.149733  14352.668947 -20015.725460   -205.270673
PG32  15200.191207  21444.115527   4669.100404   -352.227572
PJ02 -35654.781958  17594.323315  -9464.772079     -0.478465
PJ03      0.000000      0.000000      0.000000 999999.999999
PJ04 -27568.252404  27953.518125  21607.268858    117.356643
PR01   7244.295495  13492.735037  20396.447085     20.648916
PR02  21538.039744  12533.410898   5659.012924    -23.334708
PR03  22414.325170   3826.423698 -11581.248526     70.271856
PR04  10752.925428  -6520.864692 -22169.605461    171.038972
PR05  -6631.611013 -13476.871012 -20599.106868    105.620555
PR07 -22040.689040  -3268.592709  12403.780259     47.336205
PR08 -10563.083066   6831.472026  22239.535668    -68.844362
PR09 -11882.512343  -4637.459404  22114.618776     96.617887
PR11 -18690.476998  16815.864308  -4337.911620      9.623774
PR12  -4774.405350  15380.266039 -19754.819799     24.077060
PR13  10269.481072   5827.205976 -22631.394392    -30.602174
PR14  20909.602570  -8621.586927 -11777.377842     24.171383
PR15  18321.757942 -16900.213950   5436.919065     91.930932
PR16   5021.707669 -15458.897300  19652.027624      9.509862
PR17  10532.226262   -889.826781  23229.745186    592.642325
PR18   6148.136108 -17586.950979  17417.960419     60.044409
PR19    -57.592840 -25223.842965   3814.696772   -216.951240
PR20  -8285.076680 -18147.995579 -15854.434165    -85.183596
PR21 -10249.067438   2604.272532 -23204.911846   -362.659768
PR22  -6755.548490  18096.185338 -16637.192297     65.107788
PR24   9356.383373  17334.193480  16222.550999    137.189245
PR25 -10893.619538    -83.607403 -23055.148656     50.643822
EOF
